SL-8 R/B                
1 19257U 88053B   26077.13990508  .00000285  00000+0  10099-3 0  9991
2 19257  74.0450  96.8888 0021533 275.0720 153.2675 14.38921342977818
COSMOS 1975             
1 19573U 88093A   26077.10644970  .00005017  00000+0  18109-3 0  9990
2 19573  82.5167 109.2340 0012862 135.6131 224.6142 15.28183045 20699
SL-14 R/B               
1 19574U 88093B   26077.29292693  .00000553  00000+0  60805-4 0  9993
2 19574  82.5323  33.9679 0021067  14.1297  98.6018 14.85667188  2297
SL-16 R/B               
1 19650U 88102B   26077.31046828 -.00000012  00000+0  18173-4 0  9991
2 19650  70.9991 133.3590 0014570 348.1135  11.9642 14.16156064928112
INTERCOSMOS 24          
1 20261U 89080A   26077.30158504  .00000593  00000+0  17639-3 0  9999
2 20261  82.6017  98.7948 1186669 272.8107  73.8069 12.59570532667883
SL-14 R/B               
1 20262U 89080C   26077.27796403  .00000471  00000+0  13511-3 0  9992
2 20262  82.5967 167.6751 1230774 165.1266 198.9758 12.50503360661224
DELTA 1 R/B             
1 20323U 89089B   26077.10485355  .00000364  00000+0  98399-4 0  9991
2 20323  97.0700 283.2048 0070716  95.8922 265.0342 14.50670375896955
ARIANE 40 R/B           
1 20443U 90005H   26077.15244773  .00000252  00000+0  93601-4 0  9993
2 20443  98.3065 137.5610 0010378 172.8021 187.3319 14.39876092894023
DELTA 2 R/B(1)          
1 20453U 90008B   26076.84109724  .00047486  00000+0  53989-3 0  9992
2 20453  35.6029 121.3131 0082403 334.1044  25.5582 15.57035785927404
COSMOS 2058             
1 20465U 90010A   26076.99026432  .00003185  00000+0  18689-3 0  9994
2 20465  82.4670  39.2478 0008217 315.6632  44.3939 15.11394633943490
SL-14 R/B               
1 20466U 90010B   26077.25259345  .00000443  00000+0  50813-4 0  9996
2 20466  82.4986 259.3427 0018315 271.9027  88.0090 14.83576634929759
SL-14 R/B               
1 20511U 90018B   26076.87359243  .00000433  00000+0  51247-4 0  9991
2 20511  82.5218 215.4407 0017520  67.2365 293.0698 14.82153577923794
HST                     
1 20580U 90037B   26077.03336856  .00005936  00000+0  19324-3 0  9994
2 20580  28.4724 343.0766 0001638 212.8737 147.1757 15.29615021774597
SL-16 R/B               
1 20625U 90046B   26077.25090862  .00000061  00000+0  55863-4 0  9995
2 20625  70.9969 279.9329 0016137 288.2482  71.6884 14.15011169849600
COSMOS 2084             
1 20663U 90055A   26076.95721271  .00001703  00000+0  13094-3 0  9991
2 20663  62.7906 307.3804 0015780 192.2663 167.8056 15.05696347937563
SL-6 R/B(2)             
1 20666U 90055D   26077.15068998  .00001849  00000+0  14815-3 0  9990
2 20666  62.7824 225.0754 0026166 349.0888  10.9640 15.03636285939467
SL-8 R/B                
1 20775U 90078B   26077.10863747  .00010339  00000+0  30500-3 0  9999
2 20775  82.9000 243.7363 0360416 345.6606  13.4582 14.89335208810555
