[{"OBJECT_NAME":"SL-8 R/B","OBJECT_ID":"1988-053B","EPOCH":"2026-03-18T03:21:27.798912","MEAN_MOTION":14.38921342,"ECCENTRICITY":0.00215338,"INCLINATION":74.045,"RA_OF_ASC_NODE":96.8888,"ARG_OF_PERICENTER":275.072,"MEAN_ANOMALY":153.2675,"EPHEMERIS_TYPE":0,"CLASSIFICATION_TYPE":"U","NORAD_CAT_ID":19257,"ELEMENT_SET_NO":999,"REV_AT_EPOCH":97781,"BSTAR":0.00010099107,"MEAN_MOTION_DOT":2.85e-6,"MEAN_MOTION_DDOT":0},{"OBJECT_NAME":"COSMOS 1975","OBJECT_ID":"1988-093A","EPOCH":"2026-03-18T02:33:17.254080","MEAN_MOTION":15.28183045,"ECCENTRICITY":0.00128625,"INCLINATION":82.5167,"RA_OF_ASC_NODE":109.234,"ARG_OF_PERICENTER":135.6131,"MEAN_ANOMALY":224.6142,"EPHEMERIS_TYPE":0,"CLASSIFICATION_TYPE":"U","NORAD_CAT_ID":19573,"ELEMENT_SET_NO":999,"REV_AT_EPOCH":2069,"BSTAR":0.00018108656,"MEAN_MOTION_DOT":5.017e-5,"MEAN_MOTION_DDOT":0},{"OBJECT_NAME":"SL-14 R/B","OBJECT_ID":"1988-093B","EPOCH":"2026-03-18T07:01:48.886752","MEAN_MOTION":14.85667188,"ECCENTRICITY":0.00210672,"INCLINATION":82.5323,"RA_OF_ASC_NODE":33.9679,"ARG_OF_PERICENTER":14.1297,"MEAN_ANOMALY":98.6018,"EPHEMERIS_TYPE":0,"CLASSIFICATION_TYPE":"U","NORAD_CAT_ID":19574,"ELEMENT_SET_NO":999,"REV_AT_EPOCH":229,"BSTAR":6.08052e-5,"MEAN_MOTION_DOT":5.53e-6,"MEAN_MOTION_DDOT":0},{"OBJECT_NAME":"SL-16 R/B","OBJECT_ID":"1988-102B","EPOCH":"2026-03-18T07:27:04.459392","MEAN_MOTION":14.16156064,"ECCENTRICITY":0.00145704,"INCLINATION":70.9991,"RA_OF_ASC_NODE":133.359,"ARG_OF_PERICENTER":348.1135,"MEAN_ANOMALY":11.9642,"EPHEMERIS_TYPE":0,"CLASSIFICATION_TYPE":"U","NORAD_CAT_ID":19650,"ELEMENT_SET_NO":999,"REV_AT_EPOCH":92811,"BSTAR":1.8172862e-5,"MEAN_MOTION_DOT":-1.2e-7,"MEAN_MOTION_DDOT":0},{"OBJECT_NAME":"INTERCOSMOS 24","OBJECT_ID":"1989-080A","EPOCH":"2026-03-18T07:14:16.947456","MEAN_MOTION":12.59570532,"ECCENTRICITY":0.11866692,"INCLINATION":82.6017,"RA_OF_ASC_NODE":98.7948,"ARG_OF_PERICENTER":272.8107,"MEAN_ANOMALY":73.8069,"EPHEMERIS_TYPE":0,"CLASSIFICATION_TYPE":"U","NORAD_CAT_ID":20261,"ELEMENT_SET_NO":999,"REV_AT_EPOCH":66788,"BSTAR":0.00017638733,"MEAN_MOTION_DOT":5.93e-6,"MEAN_MOTION_DDOT":0},{"OBJECT_NAME":"SL-14 R/B","OBJECT_ID":"1989-080C","EPOCH":"2026-03-18T06:40:16.092192","MEAN_MOTION":12.5050336,"ECCENTRICITY":0.12307747,"INCLINATION":82.5967,"RA_OF_ASC_NODE":167.6751,"ARG_OF_PERICENTER":165.1266,"MEAN_ANOMALY":198.9758,"EPHEMERIS_TYPE":0,"CLASSIFICATION_TYPE":"U","NORAD_CAT_ID":20262,"ELEMENT_SET_NO":999,"REV_AT_EPOCH":66122,"BSTAR":0.0001351064,"MEAN_MOTION_DOT":4.71e-6,"MEAN_MOTION_DDOT":0},{"OBJECT_NAME":"DELTA 1 R/B","OBJECT_ID":"1989-089B","EPOCH":"2026-03-18T02:30:59.346720","MEAN_MOTION":14.50670375,"ECCENTRICITY":0.0070716,"INCLINATION":97.07,"RA_OF_ASC_NODE":283.2048,"ARG_OF_PERICENTER":95.8922,"MEAN_ANOMALY":265.0342,"EPHEMERIS_TYPE":0,"CLASSIFICATION_TYPE":"U","NORAD_CAT_ID":20323,"ELEMENT_SET_NO":999,"REV_AT_EPOCH":89695,"BSTAR":9.8398653e-5,"MEAN_MOTION_DOT":3.64e-6,"MEAN_MOTION_DDOT":0},{"OBJECT_NAME":"ARIANE 40 R/B","OBJECT_ID":"1990-005H","EPOCH":"2026-03-18T03:39:31.483872","MEAN_MOTION":14.39876092,"ECCENTRICITY":0.00103782,"INCLINATION":98.3065,"RA_OF_ASC_NODE":137.561,"ARG_OF_PERICENTER":172.8021,"MEAN_ANOMALY":187.3319,"EPHEMERIS_TYPE":0,"CLASSIFICATION_TYPE":"U","NORAD_CAT_ID":20443,"ELEMENT_SET_NO":999,"REV_AT_EPOCH":89402,"BSTAR":9.3601193e-5,"MEAN_MOTION_DOT":2.52e-6,"MEAN_MOTION_DDOT":0},{"OBJECT_NAME":"DELTA 2 R/B(1)","OBJECT_ID":"1990-008B","EPOCH":"2026-03-17T20:11:10.801536","MEAN_MOTION":15.57035785,"ECCENTRICITY":0.00824036,"INCLINATION":35.6029,"RA_OF_ASC_NODE":121.3131,"ARG_OF_PERICENTER":334.1044,"MEAN_ANOMALY":25.5582,"EPHEMERIS_TYPE":0,"CLASSIFICATION_TYPE":"U","NORAD_CAT_ID":20453,"ELEMENT_SET_NO":999,"REV_AT_EPOCH":92740,"BSTAR":0.00053989317,"MEAN_MOTION_DOT":0.00047486,"MEAN_MOTION_DDOT":0},{"OBJECT_NAME":"COSMOS 2058","OBJECT_ID":"1990-010A","EPOCH":"2026-03-17T23:45:58.837248","MEAN_MOTION":15.11394633,"ECCENTRICITY":0.00082178,"INCLINATION":82.467,"RA_OF_ASC_NODE":39.2478,"ARG_OF_PERICENTER":315.6632,"MEAN_ANOMALY":44.3939,"EPHEMERIS_TYPE":0,"CLASSIFICATION_TYPE":"U","NORAD_CAT_ID":20465,"ELEMENT_SET_NO":999,"REV_AT_EPOCH":94349,"BSTAR":0.00018689035,"MEAN_MOTION_DOT":3.185e-5,"MEAN_MOTION_DDOT":0},{"OBJECT_NAME":"SL-14 R/B","OBJECT_ID":"1990-010B","EPOCH":"2026-03-18T06:03:44.074080","MEAN_MOTION":14.83576634,"ECCENTRICITY":0.00183155,"INCLINATION":82.4986,"RA_OF_ASC_NODE":259.3427,"ARG_OF_PERICENTER":271.9027,"MEAN_ANOMALY":88.009,"EPHEMERIS_TYPE":0,"CLASSIFICATION_TYPE":"U","NORAD_CAT_ID":20466,"ELEMENT_SET_NO":999,"REV_AT_EPOCH":92975,"BSTAR":5.0812745e-5,"MEAN_MOTION_DOT":4.43e-6,"MEAN_MOTION_DDOT":0},{"OBJECT_NAME":"SL-14 R/B","OBJECT_ID":"1990-018B","EPOCH":"2026-03-17T20:57:58.385952","MEAN_MOTION":14.82153577,"ECCENTRICITY":0.00175201,"INCLINATION":82.5218,"RA_OF_ASC_NODE":215.4407,"ARG_OF_PERICENTER":67.2365,"MEAN_ANOMALY":293.0698,"EPHEMERIS_TYPE":0,"CLASSIFICATION_TYPE":"U","NORAD_CAT_ID":20511,"ELEMENT_SET_NO":999,"REV_AT_EPOCH":92379,"BSTAR":5.1247286e-5,"MEAN_MOTION_DOT":4.33e-6,"MEAN_MOTION_DDOT":0},{"OBJECT_NAME":"HST","OBJECT_ID":"1990-037B","EPOCH":"2026-03-18T00:48:03.043584","MEAN_MOTION":15.29615021,"ECCENTRICITY":0.00016384,"INCLINATION":28.4724,"RA_OF_ASC_NODE":343.0766,"ARG_OF_PERICENTER":212.8737,"MEAN_ANOMALY":147.1757,"EPHEMERIS_TYPE":0,"CLASSIFICATION_TYPE":"U","NORAD_CAT_ID":20580,"ELEMENT_SET_NO":999,"REV_AT_EPOCH":77459,"BSTAR":0.00019323683,"MEAN_MOTION_DOT":5.936e-5,"MEAN_MOTION_DDOT":0},{"OBJECT_NAME":"SL-16 R/B","OBJECT_ID":"1990-046B","EPOCH":"2026-03-18T06:01:18.504768","MEAN_MOTION":14.15011169,"ECCENTRICITY":0.00161379,"INCLINATION":70.9969,"RA_OF_ASC_NODE":279.9329,"ARG_OF_PERICENTER":288.2482,"MEAN_ANOMALY":71.6884,"EPHEMERIS_TYPE":0,"CLASSIFICATION_TYPE":"U","NORAD_CAT_ID":20625,"ELEMENT_SET_NO":999,"REV_AT_EPOCH":84960,"BSTAR":5.5862909e-5,"MEAN_MOTION_DOT":6.1e-7,"MEAN_MOTION_DDOT":0},{"OBJECT_NAME":"COSMOS 2084","OBJECT_ID":"1990-055A","EPOCH":"2026-03-17T22:58:23.178144","MEAN_MOTION":15.05696347,"ECCENTRICITY":0.00157808,"INCLINATION":62.7906,"RA_OF_ASC_NODE":307.3804,"ARG_OF_PERICENTER":192.2663,"MEAN_ANOMALY":167.8056,"EPHEMERIS_TYPE":0,"CLASSIFICATION_TYPE":"U","NORAD_CAT_ID":20663,"ELEMENT_SET_NO":999,"REV_AT_EPOCH":93756,"BSTAR":0.00013093538,"MEAN_MOTION_DOT":1.703e-5,"MEAN_MOTION_DDOT":0},{"OBJECT_NAME":"SL-6 R/B(2)","OBJECT_ID":"1990-055D","EPOCH":"2026-03-18T03:36:59.614272","MEAN_MOTION":15.03636285,"ECCENTRICITY":0.00261666,"INCLINATION":62.7824,"RA_OF_ASC_NODE":225.0754,"ARG_OF_PERICENTER":349.0888,"MEAN_ANOMALY":10.964,"EPHEMERIS_TYPE":0,"CLASSIFICATION_TYPE":"U","NORAD_CAT_ID":20666,"ELEMENT_SET_NO":999,"REV_AT_EPOCH":93946,"BSTAR":0.00014815364,"MEAN_MOTION_DOT":1.849e-5,"MEAN_MOTION_DDOT":0},{"OBJECT_NAME":"SL-8 R/B","OBJECT_ID":"1990-078B","EPOCH":"2026-03-18T02:36:26.277408","MEAN_MOTION":14.89335208,"ECCENTRICITY":0.03604163,"INCLINATION":82.9,"RA_OF_ASC_NODE":243.7363,"ARG_OF_PERICENTER":345.6606,"MEAN_ANOMALY":13.4582,"EPHEMERIS_TYPE":0,"CLASSIFICATION_TYPE":"U","NORAD_CAT_ID":20775,"ELEMENT_SET_NO":999,"REV_AT_EPOCH":81055,"BSTAR":0.00030499699,"MEAN_MOTION_DOT":0.00010339,"MEAN_MOTION_DDOT":0}]
